{
    "CCSDS_OMM_VERS": "3.0",
    "COMMENT": "GENERATED VIA SPACE-TRACK.ORG API",
    "CREATION_DATE": "2025-11-23T23:06:32",
    "ORIGINATOR": "18 SPCS",
    "OBJECT_NAME": "BEIDOU IGSO-6",
    "OBJECT_ID": "2016-021A",
    "CENTER_NAME": "EARTH",
    "REF_FRAME": "TEME",
    "TIME_SYSTEM": "UTC",
    "MEAN_ELEMENT_THEORY": "SGP4",
    "EPOCH": "2025-11-23T17:17:24.159264",
    "MEAN_MOTION": "1.00258711",
    "ECCENTRICITY": "0.00591690",
    "INCLINATION": "59.9373",
    "RA_OF_ASC_NODE": "40.0919",
    "ARG_OF_PERICENTER": "230.6348",
    "MEAN_ANOMALY": "144.1081",
    "EPHEMERIS_TYPE": "0",
    "CLASSIFICATION_TYPE": "U",
    "NORAD_CAT_ID": "41434",
    "ELEMENT_SET_NO": "999",
    "REV_AT_EPOCH": "3542",
    "BSTAR": "0.00000000000000",
    "MEAN_MOTION_DOT": "-0.00000139",
    "MEAN_MOTION_DDOT": "0.0000000000000",
    "SEMIMAJOR_AXIS": "42168.397",
    "PERIOD": "1436.284",
    "APOAPSIS": "36039.769",
    "PERIAPSIS": "35540.756",
    "OBJECT_TYPE": "PAYLOAD",
    "RCS_SIZE": "LARGE",
    "COUNTRY_CODE": "PRC",
    "LAUNCH_DATE": "2016-03-29",
    "SITE": "XSC",
    "DECAY_DATE": null,
    "FILE": "4896365",
    "GP_ID": "303352422",
    "TLE_LINE0": "0 BEIDOU IGSO-6",
    "TLE_LINE1": "1 41434U 16021A   25327.72041851 -.00000139  00000-0  00000+0 0  9996",
    "TLE_LINE2": "2 41434  59.9373  40.0919 0059169 230.6348 144.1081  1.00258711 35421"
}